OBJECT_NAME,OBJECT_ID,EPOCH,MEAN_MOTION,ECCENTRICITY,INCLINATION,RA_OF_ASC_NODE,ARG_OF_PERICENTER,MEAN_ANOMALY,EPHEMERIS_TYPE,CLASSIFICATION_TYPE,NORAD_CAT_ID,ELEMENT_SET_NO,REV_AT_EPOCH,BSTAR,MEAN_MOTION_DOT,MEAN_MOTION_DDOT
OMNI-L1,2022-033A,2026-07-19T18:31:55.679808,14.82852898,.0005717,97.8388,279.3171,163.5950,196.5450,0,U,52157,999,23228,.10338E-3,.785E-5,0
ENMAP,2022-033C,2026-07-19T20:44:27.738816,14.74943022,.0001256,97.9785,282.6485,82.6725,277.4627,0,U,52159,999,23147,.55456E-4,.322E-5,0
ARCSAT-1,2022-033E,2026-07-19T18:32:21.643872,15.54346703,.0006301,97.2747,293.5475,85.0659,275.1314,0,U,52161,999,24076,.10785E-3,.6964E-4,0
GLOBAL-18,2022-034B,2026-07-19T02:35:53.051424,15.47332521,.00046399,52.9812,103.9534,35.1635,324.9676,0,U,52196,999,24190,.2685832E-3,.13531E-3,0
GAOFEN-3 03,2022-035A,2026-07-19T20:05:43.651392,14.42217874,.0001793,98.4070,208.9445,86.9857,273.1538,0,U,52200,999,22555,-.23294E-4,-.12E-5,0
DAQI-1,2022-039A,2026-07-19T21:18:31.687200,14.57693910,.0004298,98.1486,139.0650,135.8870,224.2673,0,U,52257,999,22670,.22416E-4,.57E-6,0
BRO-6,2022-047AE,2026-07-19T19:59:13.576992,15.52807935,.0002847,97.3381,292.5683,282.4248,77.6686,0,U,52422,999,23621,.40538E-3,.2505E-3,0
JILIN-1 GAOFEN 3D27,2022-048B,2026-07-19T20:11:46.376736,15.84283722,.0005619,97.5723,317.9686,234.2061,125.8686,0,U,52444,999,23463,.5914E-3,.135137E-2,0
JILIN-1 GAOFEN 3D28,2022-048C,2026-07-19T19:40:27.198336,15.89792839,.0005614,97.5678,318.2806,237.7785,122.2944,0,U,52445,999,23469,.65747E-3,.193037E-2,.1567E-4
VIGORIDE-3,2022-057AE,2026-07-19T20:11:07.019808,15.27575933,.000849,97.6648,341.6954,19.7202,340.4363,0,U,52760,999,23014,.10807E-3,.2837E-4,0
ION SCV-006,2022-057AF,2026-07-19T15:56:15.933984,15.45981990,.0016366,97.6142,350.8684,1.4088,358.7203,0,U,52761,999,23113,.14025E-3,.6772E-4,0
SHERPA-AC1,2022-057AH,2026-07-19T08:51:45.059328,15.36664342,.00068218,97.6729,350.9538,348.3729,11.7355,0,U,52763,999,23064,.10764321E-3,.3768E-4,0
OMNI-L2,2022-057AR,2026-07-19T17:55:14.301120,14.81443484,.0006059,97.4698,260.9154,203.7785,156.3150,0,U,52771,999,22521,.74585E-4,.536E-5,0
STEP CUBE LAB-II,2022-065D,2026-07-19T21:20:08.727360,14.63347001,.0007257,98.2273,344.6976,285.6558,74.3843,0,U,52897,999,21628,.95602E-4,.446E-5,0
RANDEV,2022-065E,2026-07-19T21:09:13.297824,14.63735359,.000661,98.2257,345.0561,286.0565,73.9909,0,U,52898,999,21603,.73606E-4,.335E-5,0
SNUGLITE-II,2022-065F,2026-07-19T14:58:36.585120,14.64398349,.0006141,98.2243,345.4048,283.8091,76.2427,0,U,52899,999,21574,.86947E-4,.411E-5,0
MIMAN,2022-065G,2026-07-19T08:31:19.099488,14.61873755,.00063081,98.2302,342.6829,288.3094,71.7420,0,U,52900,999,21514,.52065953E-4,.213E-5,0
STARLINK-4362,2022-077A,2026-07-19T18:19:48.838080,15.05651987,.0001459,97.2865,17.9605,102.6844,257.4547,0,U,53043,999,22078,-.19359E-5,-.84E-6,0
LARES-2,2022-080A,2026-07-18T18:51:23.050944,6.38965084,.00054794,70.1539,294.4914,328.1411,31.8962,0,U,53105,999,9368,0,-.2E-6,0
GREENCUBE (IO-117),2022-080E,2026-07-19T05:53:22.496064,6.42583325,.00090857,70.1403,287.0980,282.5487,77.4156,0,U,53109,999,9412,0,-.3E-7,0
STARLINK-4410,2022-084R,2026-07-19T20:00:01.999008,15.38724095,.000171,97.6008,263.1004,91.1526,105.5963,0,U,53204,999,574,-.21729E-1,-.763871E-2,0
COSMOS 2558,2022-089A,2026-07-19T20:24:10.976256,15.82661961,.0004319,97.2240,306.4257,221.8277,138.2663,0,U,53323,999,22298,.50746E-3,.107044E-2,0
TECMS,2022-090A,2026-07-19T20:20:42.734976,15.21250208,.0005388,97.3122,268.0281,73.8122,286.3707,0,U,53346,999,21977,.78744E-4,.1692E-4,0
DONGPO 02,2022-098J,2026-07-19T19:54:15.185952,15.82104356,.0004479,97.5552,335.0486,205.8607,154.2438,0,U,53452,999,21994,.53359E-3,.109731E-2,0
DONGPO 01,2022-098K,2026-07-19T20:59:08.774304,15.78923597,.0002976,97.5629,335.5167,201.5886,158.5256,0,U,53453,999,21990,.5089E-3,.90297E-3,0
STARLINK-4400,2022-099D,2026-07-19T19:25:38.430048,15.05643163,.000185,97.2843,318.0838,128.2863,231.8531,0,U,53468,999,21585,-.70151E-4,-.1068E-4,0
STARLINK-4621,2022-105AE,2026-07-19T05:08:18.118176,15.05656579,.00016149,97.2849,77.5379,90.6186,269.5227,0,U,53676,999,21302,.37246751E-4,.481E-5,0
SHERPA-LTC2,2022-107BG,2026-07-19T19:49:08.656032,14.69939374,.039309,53.2364,82.1403,317.7062,39.4206,0,U,53754,999,20734,.11066E-3,.1913E-4,0
CENTISPACE-1 S3,2022-108A,2026-07-19T20:00:56.932992,14.61285863,.0010816,53.5331,280.2597,75.2235,284.9938,0,U,53757,999,20630,.5212E-4,.69E-6,0
CENTISPACE-1 S4,2022-108B,2026-07-19T20:54:42.854112,14.61971127,.0010179,53.5305,277.4675,64.7455,295.4574,0,U,53758,999,20634,.45079E-4,.37E-6,0
