OMNI-L1                 
1 52157U 22033A   26200.77217222  .00000785  00000+0  10338-3 0  9997
2 52157  97.8388 279.3171 0005717 163.5950 196.5450 14.82852898232286
ENMAP                   
1 52159U 22033C   26200.86420994  .00000322  00000+0  55456-4 0  9999
2 52159  97.9785 282.6485 0001256  82.6725 277.4627 14.74943022231476
ARCSAT-1                
1 52161U 22033E   26200.77247273  .00006964  00000+0  10785-3 0  9992
2 52161  97.2747 293.5475 0006301  85.0659 275.1314 15.54346703240761
GLOBAL-18               
1 52196U 22034B   26200.10825291  .00013531  00000+0  26858-3 0  9996
2 52196  52.9812 103.9534 0004639  35.1635 324.9676 15.47332521241908
GAOFEN-3 03             
1 52200U 22035A   26200.83731078 -.00000120  00000+0 -23294-4 0  9996
2 52200  98.4070 208.9445 0001793  86.9857 273.1538 14.42217874225552
DAQI-1                  
1 52257U 22039A   26200.88786675  .00000057  00000+0  22416-4 0  9992
2 52257  98.1486 139.0650 0004298 135.8870 224.2673 14.57693910226706
BRO-6                   
1 52422U 22047AE  26200.83279603  .00025050  00000+0  40538-3 0  9992
2 52422  97.3381 292.5683 0002847 282.4248  77.6686 15.52807935236213
JILIN-1 GAOFEN 3D27     
1 52444U 22048B   26200.84150899  .00135137  00000+0  59140-3 0  9990
2 52444  97.5723 317.9686 0005619 234.2061 125.8686 15.84283722234639
JILIN-1 GAOFEN 3D28     
1 52445U 22048C   26200.81975924  .00193037  15670-4  65747-3 0  9999
2 52445  97.5678 318.2806 0005614 237.7785 122.2944 15.89792839234696
VIGORIDE-3              
1 52760U 22057AE  26200.84105347  .00002837  00000+0  10807-3 0  9996
2 52760  97.6648 341.6954 0008490  19.7202 340.4363 15.27575933230146
ION SCV-006             
1 52761U 22057AF  26200.66407331  .00006772  00000+0  14025-3 0  9993
2 52761  97.6142 350.8684 0016366   1.4088 358.7203 15.45981990231138
SHERPA-AC1              
1 52763U 22057AH  26200.36927152  .00003768  00000+0  10764-3 0  9998
2 52763  97.6729 350.9538 0006821 348.3729  11.7355 15.36664342230648
OMNI-L2                 
1 52771U 22057AR  26200.74669330  .00000536  00000+0  74585-4 0  9992
2 52771  97.4698 260.9154 0006059 203.7785 156.3150 14.81443484225210
STEP CUBE LAB-II        
1 52897U 22065D   26200.88898990  .00000446  00000+0  95602-4 0  9994
2 52897  98.2273 344.6976 0007257 285.6558  74.3843 14.63347001216280
RANDEV                  
1 52898U 22065E   26200.88140391  .00000335  00000+0  73606-4 0  9997
2 52898  98.2257 345.0561 0006610 286.0565  73.9909 14.63735359216031
SNUGLITE-II             
1 52899U 22065F   26200.62403455  .00000411  00000+0  86947-4 0  9990
2 52899  98.2243 345.4048 0006141 283.8091  76.2427 14.64398349215742
MIMAN                   
1 52900U 22065G   26200.35508217  .00000213  00000+0  52066-4 0  9990
2 52900  98.2302 342.6829 0006308 288.3094  71.7420 14.61873755215148
STARLINK-4362           
1 53043U 22077A   26200.76375970 -.00000084  00000+0 -19359-5 0  9992
2 53043  97.2865  17.9605 0001459 102.6844 257.4547 15.05651987220786
LARES-2                 
1 53105U 22080A   26199.78568346 -.00000020  00000+0  00000+0 0  9991
2 53105  70.1539 294.4914 0005479 328.1411  31.8962  6.38965084 93683
GREENCUBE (IO-117)      
1 53109U 22080E   26200.24539926 -.00000003  00000+0  00000+0 0  9992
2 53109  70.1403 287.0980 0009085 282.5487  77.4156  6.42583325 94121
STARLINK-4410           
1 53204U 22084R   26200.83335647 -.00763871  00000+0 -21729-1 0  9994
2 53204  97.6008 263.1004 0001710  91.1526 105.5963 15.38724095  5744
COSMOS 2558             
1 53323U 22089A   26200.85012704  .00107044  00000+0  50746-3 0  9994
2 53323  97.2240 306.4257 0004319 221.8277 138.2663 15.82661961222982
TECMS                   
1 53346U 22090A   26200.84771684  .00001692  00000+0  78744-4 0  9990
2 53346  97.3122 268.0281 0005388  73.8122 286.3707 15.21250208219776
DONGPO 02               
1 53452U 22098J   26200.82934243  .00109731  00000+0  53359-3 0  9993
2 53452  97.5552 335.0486 0004479 205.8607 154.2438 15.82104356219942
DONGPO 01               
1 53453U 22098K   26200.87440711  .00090297  00000+0  50890-3 0  9994
2 53453  97.5629 335.5167 0002976 201.5886 158.5256 15.78923597219903
STARLINK-4400           
1 53468U 22099D   26200.80947257 -.00001068  00000+0 -70151-4 0  9994
2 53468  97.2843 318.0838 0001850 128.2863 231.8531 15.05643163215854
STARLINK-4621           
1 53676U 22105AE  26200.21409859  .00000481  00000+0  37247-4 0  9994
2 53676  97.2849  77.5379 0001614  90.6186 269.5227 15.05656579213028
SHERPA-LTC2             
1 53754U 22107BG  26200.82579463  .00001913  00000+0  11066-3 0  9990
2 53754  53.2364  82.1403 0393090 317.7062  39.4206 14.69939374207342
CENTISPACE-1 S3         
1 53757U 22108A   26200.83399228  .00000069  00000+0  52120-4 0  9992
2 53757  53.5331 280.2597 0010816  75.2235 284.9938 14.61285863206300
CENTISPACE-1 S4         
1 53758U 22108B   26200.87132933  .00000037  00000+0  45079-4 0  9995
2 53758  53.5305 277.4675 0010179  64.7455 295.4574 14.61971127206348
